{
    "links": {
        "self": "http://www.neowsapp.com/rest/v1/neo/3843719?api_key=iIulBulltgU6a56xZRHN4H3l9WmuAYTsLGpBGhQ2"
    },
    "id": "3843719",
    "neo_reference_id": "3843719",
    "name": "(2019 QD7)",
    "designation": "2019 QD7",
    "nasa_jpl_url": "http://ssd.jpl.nasa.gov/sbdb.cgi?sstr=3843719",
    "absolute_magnitude_h": 25.7,
    "estimated_diameter": {
        "kilometers": {
            "estimated_diameter_min": 0.0192555078,
            "estimated_diameter_max": 0.0430566244
        },
        "meters": {
            "estimated_diameter_min": 19.2555078188,
            "estimated_diameter_max": 43.0566244241
        },
        "miles": {
            "estimated_diameter_min": 0.0119648141,
            "estimated_diameter_max": 0.0267541378
        },
        "feet": {
            "estimated_diameter_min": 63.1742402722,
            "estimated_diameter_max": 141.2618956756
        }
    },
    "is_potentially_hazardous_asteroid": false,
    "close_approach_data": [
        {
            "close_approach_date": "2019-08-25",
            "close_approach_date_full": "2019-Aug-25 10:01",
            "epoch_date_close_approach": 1566727260000,
            "relative_velocity": {
                "kilometers_per_second": "10.2192517535",
                "kilometers_per_hour": "36789.3063124438",
                "miles_per_hour": "22859.4442473071"
            },
            "miss_distance": {
                "astronomical": "0.0263548959",
                "lunar": "10.2520545051",
                "kilometers": "3942636.290711733",
                "miles": "2449840.5904305954"
            },
            "orbiting_body": "Earth"
        },
        {
            "close_approach_date": "2070-05-27",
            "close_approach_date_full": "2070-May-27 13:45",
            "epoch_date_close_approach": 3168423900000,
            "relative_velocity": {
                "kilometers_per_second": "18.1500536538",
                "kilometers_per_hour": "65340.1931536483",
                "miles_per_hour": "40599.8550181655"
            },
            "miss_distance": {
                "astronomical": "0.4281635917",
                "lunar": "166.5556371713",
                "kilometers": "64052361.329869679",
                "miles": "39800291.7663284102"
            },
            "orbiting_body": "Earth"
        }
    ],
    "orbital_data": {
        "orbit_id": "3",
        "orbit_determination_date": "2019-09-05 05:55:18",
        "first_observation_date": "2019-08-31",
        "last_observation_date": "2019-09-05",
        "data_arc_in_days": 5,
        "observations_used": 23,
        "orbit_uncertainty": "8",
        "minimum_orbit_intersection": ".0229659",
        "jupiter_tisserand_invariant": "3.991",
        "epoch_osculation": "2458727.5",
        "eccentricity": ".4363520464620128",
        "semi_major_axis": "1.749991210900683",
        "inclination": "12.75149952791164",
        "ascending_node_longitude": "336.7616383260447",
        "orbital_period": "845.5751827272695",
        "perihelion_distance": ".9863789647336341",
        "perihelion_argument": "326.2402523904252",
        "aphelion_distance": "2.513603457067731",
        "perihelion_time": "2458696.014552131574",
        "mean_anomaly": "13.40479411431503",
        "mean_motion": ".4257457022791004",
        "equinox": "J2000",
        "orbit_class": {
            "orbit_class_type": "APO",
            "orbit_class_description": "Near-Earth asteroid orbits which cross the Earth’s orbit similar to that of 1862 Apollo",
            "orbit_class_range": "a (semi-major axis) > 1.0 AU; q (perihelion) < 1.017 AU"
        }
    },
    "is_sentry_object": false
}